NORAD_CAT_ID,OBJECT_NAME,OBJECT_TYPE,EPOCH,MEAN_MOTION,ECCENTRICITY,INCLINATION,RA_OF_ASC_NODE,ARG_OF_PERICENTER,MEAN_ANOMALY,BSTAR,MEAN_MOTION_DOT,MEAN_MOTION_DDOT,TLE_LINE0,TLE_LINE1,TLE_LINE2,SEMIMAJOR_AXIS,PERIOD,APOGEE,PERIGEE,DECAYED
53403.0,STARLINK-4507,PAYLOAD,2023-03-25 02:27:12,15.08883635,0.0001383,53.2146,295.0665,76.6753,283.4393,0.0009641,0.00015107,0.0,0 STARLINK-4507,1 53403U 22097R   23084.10222999  .00015107  00000-0  96410-3 0  9993,2 53403  53.2146 295.0665 0001383  76.6753 283.4393 15.08883635 34893,6917.747,95.435,540.569,538.655,0.0
53403.0,STARLINK-4507,PAYLOAD,2023-03-25 19:56:29,15.08794305,0.0001383,53.2156,291.7947,63.6723,296.4411,-0.00072086,-0.00011728,0.0,0 STARLINK-4507,1 53403U 22097R   23084.83089987 -.00011728  00000-0 -72086-3 0  9991,2 53403  53.2156 291.7947 0001383  63.6723 296.4411 15.08794305 35007,6918.02,95.44,540.842,538.928,0.0
53403.0,STARLINK-4507,PAYLOAD,2023-03-25 21:31:53,15.08797194,0.0001393,53.2156,291.4977,57.487,302.6257,-0.00020757,-3.586e-05,0.0,0 STARLINK-4507,1 53403U 22097R   23084.89714252 -.00003586  00000-0 -20757-3 0  9998,2 53403  53.2156 291.4977 0001393  57.4870 302.6257 15.08797194 35504,6918.011,95.44,540.84,538.913,0.0
53403.0,STARLINK-4507,PAYLOAD,2023-03-26 19:47:18,15.0883653,0.0001587,53.2156,287.3362,41.2233,318.8878,0.00182,0.00028793,0.0,0 STARLINK-4507,1 53403U 22097R   23085.82452378  .00028793  00000-0  18200-2 0  9994,2 53403  53.2156 287.3362 0001587  41.2233 318.8878 15.08836530 35152,6917.891,95.438,540.854,538.658,0.0
53403.0,STARLINK-4507,PAYLOAD,2023-03-27 13:16:32,15.08872505,0.0001575,53.2156,284.0636,43.6389,316.4727,0.0015747,0.00024885,0.0,0 STARLINK-4507,1 53403U 22097R   23086.55315561  .00024885  00000-0  15747-2 0  9998,2 53403  53.2156 284.0636 0001575  43.6389 316.4727 15.08872505 35750,6917.781,95.435,540.736,538.556,0.0
53403.0,STARLINK-4507,PAYLOAD,2023-03-27 19:38:04,15.08887439,0.0001614,53.2155,282.874,41.3185,318.7929,0.001754,0.00027774,0.0,0 STARLINK-4507,1 53403U 22097R   23086.81810832  .00027774  00000-0  17540-2 0  9991,2 53403  53.2155 282.8740 0001614  41.3185 318.7929 15.08887439 35799,6917.735,95.435,540.717,538.484,0.0
53403.0,STARLINK-4507,PAYLOAD,2023-03-27 22:48:50,15.08893937,0.0001623,53.2155,282.2793,40.7879,319.3235,0.0017644,0.00027946,0.0,0 STARLINK-4507,1 53403U 22097R   23086.95058395  .00027946  00000-0  17644-2 0  9990,2 53403  53.2155 282.2793 0001623  40.7879 319.3235 15.08893937 35320,6917.716,95.434,540.703,538.458,0.0
53403.0,STARLINK-4507,PAYLOAD,2023-03-28 13:07:18,15.08866743,0.0001345,53.2157,279.6025,53.5386,306.573,0.0010864,0.00017057,0.0,0 STARLINK-4507,1 53403U 22097R   23087.54674024  .00017057  00000-0  10864-2 0  9998,2 53403  53.2157 279.6025 0001345  53.5386 306.5730 15.08866743 35903,6917.799,95.436,540.594,538.733,0.0
53403.0,STARLINK-4507,PAYLOAD,2023-03-28 16:18:04,15.08865348,0.0001337,53.2158,279.0078,54.2505,305.8611,0.00132,0.00020797,0.0,0 STARLINK-4507,1 53403U 22097R   23087.67921972  .00020797  00000-0  13200-2 0  9991,2 53403  53.2158 279.0078 0001337  54.2505 305.8611 15.08865348 35436,6917.803,95.436,540.593,538.743,0.0
53403.0,STARLINK-4507,PAYLOAD,2023-03-28 19:28:50,15.08862589,0.0001381,53.2159,278.4135,52.5348,307.577,0.0013228,0.0002084,0.0,0 STARLINK-4507,1 53403U 22097R   23087.81169870  .00020840  00000-0  13228-2 0  9997,2 53403  53.2159 278.4135 0001381  52.5348 307.5770 15.08862589 35944,6917.811,95.436,540.632,538.721,0.0
53403.0,STARLINK-4507,PAYLOAD,2023-03-29 05:01:08,15.08876471,0.0001378,53.216,276.6289,52.5976,307.5142,0.0013343,0.00021032,0.0,0 STARLINK-4507,1 53403U 22097R   23088.20913087  .00021032  00000-0  13343-2 0  9990,2 53403  53.2160 276.6289 0001378  52.5976 307.5142 15.08876471 35510,6917.769,95.435,540.587,538.681,0.0
53403.0,STARLINK-4507,PAYLOAD,2023-03-29 19:19:37,15.08850741,0.000153,53.216,273.951,48.3887,311.7235,0.00094888,0.0001485,0.0,0 STARLINK-4507,1 53403U 22097R   23088.80529929  .00014850  00000-0  94888-3 0  9998,2 53403  53.2160 273.9510 0001530  48.3887 311.7235 15.08850741 35603,6917.848,95.437,540.771,538.654,0.0
53403.0,STARLINK-4507,PAYLOAD,2023-03-30 04:51:56,15.08844164,0.0001177,53.2161,272.1704,67.2282,292.8834,0.00034881,5.268e-05,0.0,0 STARLINK-4507,1 53403U 22097R   23089.20273867  .00005268  00000-0  34881-3 0  9990,2 53403  53.2161 272.1704 0001177  67.2282 292.8834 15.08844164 35668,6917.868,95.437,540.547,538.918,0.0
53403.0,STARLINK-4507,PAYLOAD,2023-03-30 17:35:01,15.08839804,0.0001211,53.2156,269.7923,70.1666,289.9457,7.245e-05,8.65e-06,0.0,0 STARLINK-4507,1 53403U 22097R   23089.73266039  .00000865  00000-0  72450-4 0  9994,2 53403  53.2156 269.7923 0001211  70.1666 289.9457 15.08839804 35747,6917.881,95.438,540.584,538.908,0.0
53403.0,STARLINK-4507,PAYLOAD,2023-03-31 20:36:34,15.08855602,0.0001183,53.2159,264.735,77.861,282.2514,0.0004801,7.364e-05,0.0,0 STARLINK-4507,1 53403U 22097R   23090.85873535  .00007364  00000-0  48010-3 0  9999,2 53403  53.2159 264.7350 0001183  77.8610 282.2514 15.08855602 35913,6917.833,95.437,540.516,538.879,0.0
53403.0,STARLINK-4507,PAYLOAD,2023-04-01 04:33:30,15.08840777,8.75e-05,53.2159,263.2502,82.388,277.7211,4.5843e-05,4.42e-06,0.0,0 STARLINK-4507,1 53403U 22097R   23091.18993850  .00000442  00000-0  45843-4 0  9991,2 53403  53.2159 263.2502 0000875  82.3880 277.7211 15.08840777 35968,6917.878,95.438,540.348,539.138,0.0
53403.0,STARLINK-4507,PAYLOAD,2023-04-01 12:30:26,15.08836754,0.0001368,53.2152,261.7626,83.8399,276.2748,3.1648e-05,2.16e-06,0.0,0 STARLINK-4507,1 53403U 22097R   23091.52114256  .00000216  00000-0  31648-4 0  9991,2 53403  53.2152 261.7626 0001368  83.8399 276.2748 15.08836754 36500,6917.89,95.438,540.702,538.809,0.0
53403.0,STARLINK-4507,PAYLOAD,2023-04-01 18:51:59,15.0883318,0.0001246,53.2159,260.5731,84.4955,275.6179,2.3802e-05,9.1e-07,0.0,0 STARLINK-4507,1 53403U 22097R   23091.78610455  .00000091  00000-0  23802-4 0  9995,2 53403  53.2159 260.5731 0001246  84.4955 275.6179 15.08833180 36052,6917.901,95.438,540.628,538.904,0.0
53403.0,STARLINK-4507,PAYLOAD,2023-04-02 10:45:50,15.0884195,0.0001323,53.2164,257.5991,85.2202,274.8942,0.00028201,4.203e-05,0.0,0 STARLINK-4507,1 53403U 22097R   23092.44850586  .00004203  00000-0  28201-3 0  9996,2 53403  53.2164 257.5991 0001323  85.2202 274.8942 15.08841950 36640,6917.874,95.437,540.655,538.824,0.0
53403.0,STARLINK-4507,PAYLOAD,2023-04-02 17:07:23,15.08845089,0.0001219,53.2152,256.4095,87.0222,273.091,0.00050416,7.746e-05,0.0,0 STARLINK-4507,1 53403U 22097R   23092.71346542  .00007746  00000-0  50416-3 0  9996,2 53403  53.2152 256.4095 0001219  87.0222 273.0910 15.08845089 36683,6917.865,95.437,540.573,538.887,0.0
53403.0,STARLINK-4507,PAYLOAD,2023-04-03 04:15:05,15.08844673,7.01e-05,53.2141,254.329,46.1579,313.9471,0.00040877,6.225e-05,0.0,0 STARLINK-4507,1 53403U 22097R   23093.17714456  .00006225  00000-0  40877-3 0  9991,2 53403  53.2141 254.3290 0000701  46.1579 313.9471 15.08844673 36269,6917.866,95.437,540.216,539.246,0.0
53403.0,STARLINK-4507,PAYLOAD,2023-04-03 10:36:38,15.08839911,0.0001165,53.2143,253.1372,80.3428,279.7696,0.00024892,3.676e-05,0.0,0 STARLINK-4507,1 53403U 22097R   23093.44210831  .00003676  00000-0  24892-3 0  9995,2 53403  53.2143 253.1372 0001165  80.3428 279.7696 15.08839911 36792,6917.881,95.438,540.552,538.94,0.0
53403.0,STARLINK-4507,PAYLOAD,2023-04-03 20:08:57,15.08841995,0.0001494,53.2152,251.3538,73.636,286.4796,0.00027025,4.016e-05,0.0,0 STARLINK-4507,1 53403U 22097R   23093.83955062  .00004016  00000-0  27025-3 0  9990,2 53403  53.2152 251.3538 0001494  73.6360 286.4796 15.08841995 36365,6917.874,95.437,540.773,538.706,0.0
53403.0,STARLINK-4507,PAYLOAD,2023-04-04 10:27:25,15.0884584,0.0001655,53.2141,248.6774,69.5053,290.6116,0.00043395,6.626e-05,0.0,0 STARLINK-4507,1 53403U 22097R   23094.43571090  .00006626  00000-0  43395-3 0  9999,2 53403  53.2141 248.6774 0001655  69.5053 290.6116 15.08845840 36946,6917.863,95.437,540.872,538.583,0.0
53403.0,STARLINK-4507,PAYLOAD,2023-04-04 19:59:43,15.08853339,0.0001701,53.2137,246.8918,74.6964,285.4216,0.00051965,7.995e-05,0.0,0 STARLINK-4507,1 53403U 22097R   23094.83314740  .00007995  00000-0  51965-3 0  9992,2 53403  53.2137 246.8918 0001701  74.6964 285.4216 15.08853339 37004,6917.84,95.437,540.881,538.528,0.0
53403.0,STARLINK-4507,PAYLOAD,2023-04-05 13:28:58,15.08839725,0.0001271,53.2141,243.6208,81.6838,278.4298,4.7708e-05,4.71e-06,0.0,0 STARLINK-4507,1 53403U 22097R   23095.56178875  .00000471  00000-0  47708-4 0  9993,2 53403  53.2141 243.6208 0001271  81.6838 278.4298 15.08839725 37113,6917.881,95.438,540.625,538.867,0.0
53403.0,STARLINK-4507,PAYLOAD,2023-04-05 15:04:21,15.08841062,0.0001246,53.2147,243.3243,73.9645,286.1484,0.00010279,1.348e-05,0.0,0 STARLINK-4507,1 53403U 22097R   23095.62802883  .00001348  00000-0  10279-3 0  9999,2 53403  53.2147 243.3243 0001246  73.9645 286.1484 15.08841062 36633,6917.877,95.437,540.604,538.88,0.0
53403.0,STARLINK-4507,PAYLOAD,2023-04-05 16:39:44,15.08845462,0.0001132,53.215,243.0269,76.5787,283.5331,0.00025444,3.764e-05,0.0,0 STARLINK-4507,1 53403U 22097R   23095.69426733  .00003764  00000-0  25444-3 0  9996,2 53403  53.2150 243.0269 0001132  76.5787 283.5331 15.08845462 37138,6917.864,95.437,540.512,538.946,0.0
53403.0,STARLINK-4507,PAYLOAD,2023-04-06 10:08:59,15.08838095,0.0001163,53.2164,239.7567,77.9437,282.1686,0.00015381,2.161e-05,0.0,0 STARLINK-4507,1 53403U 22097R   23096.42290942  .00002161  00000-0  15381-3 0  9998,2 53403  53.2164 239.7567 0001163  77.9437 282.1686 15.08838095 37241,6917.886,95.438,540.556,538.947,0.0
53403.0,STARLINK-4507,PAYLOAD,2023-04-06 16:30:31,15.08845828,0.0001125,53.2169,238.5676,83.7174,276.3947,0.00022598,3.311e-05,0.0,0 STARLINK-4507,1 53403U 22097R   23096.68786661  .00003311  00000-0  22598-3 0  9990,2 53403  53.2169 238.5676 0001125  83.7174 276.3947 15.08845828 36791,6917.863,95.437,540.506,538.949,0.0
